TIANMU-1 07             
1 57399U 23101A   26065.57454230  .00008352  00000+0  29795-3 0  9991
2 57399  97.2728 118.5929 0004609 142.4105 217.7458 15.29118809145964
STARLINK-35985          
1 66815U 25278AA  26068.19404176  .00030303  00000+0  11062-2 0  9994
2 66815  43.0024 117.1271 0001005 232.4448 127.6312 15.27580568 16347
